[{"OBJECT_NAME":"STARLINK-36450","OBJECT_ID":"2026-002N","EPOCH":"2026-03-09T10:05:21.811776","MEAN_MOTION":15.27591291,"ECCENTRICITY":8.244e-5,"INCLINATION":43.0057,"RA_OF_ASC_NODE":327.1425,"ARG_OF_PERICENTER":300.9814,"MEAN_ANOMALY":59.0957,"EPHEMERIS_TYPE":0,"CLASSIFICATION_TYPE":"U","NORAD_CAT_ID":67317,"ELEMENT_SET_NO":999,"REV_AT_EPOCH":1119,"BSTAR":0.0011516158,"MEAN_MOTION_DOT":0.00031574,"MEAN_MOTION_DDOT":0},{"OBJECT_NAME":"ELECTRON KICK STAGE R\/B","OBJECT_ID":"2024-047B","EPOCH":"2026-03-09T21:11:54.433824","MEAN_MOTION":15.27307897,"ECCENTRICITY":0.00092426,"INCLINATION":97.6338,"RA_OF_ASC_NODE":46.9382,"ARG_OF_PERICENTER":20.6031,"MEAN_ANOMALY":339.5579,"EPHEMERIS_TYPE":0,"CLASSIFICATION_TYPE":"U","NORAD_CAT_ID":59225,"ELEMENT_SET_NO":999,"REV_AT_EPOCH":10999,"BSTAR":0.00091229405,"MEAN_MOTION_DOT":0.00024409,"MEAN_MOTION_DDOT":0}]
